[{"OBJECT_NAME":"STARLINK-6083","OBJECT_ID":"2023-046S","EPOCH":"2026-03-09T13:19:09.123744","MEAN_MOTION":15.02534932,"ECCENTRICITY":0.0001658,"INCLINATION":43.0049,"RA_OF_ASC_NODE":159.5193,"ARG_OF_PERICENTER":271.5432,"MEAN_ANOMALY":88.522,"EPHEMERIS_TYPE":0,"CLASSIFICATION_TYPE":"U","NORAD_CAT_ID":56109,"ELEMENT_SET_NO":999,"REV_AT_EPOCH":16204,"BSTAR":-2.3119e-5,"MEAN_MOTION_DOT":-5.16e-6,"MEAN_MOTION_DDOT":0},{"OBJECT_NAME":"KUIPER-00179","OBJECT_ID":"2025-301D","EPOCH":"2026-03-09T22:00:01.999584","MEAN_MOTION":15.06426136,"ECCENTRICITY":0.00027009,"INCLINATION":51.8878,"RA_OF_ASC_NODE":65.7875,"ARG_OF_PERICENTER":79.7828,"MEAN_ANOMALY":141.5104,"EPHEMERIS_TYPE":0,"CLASSIFICATION_TYPE":"U","NORAD_CAT_ID":67136,"ELEMENT_SET_NO":999,"REV_AT_EPOCH":537,"BSTAR":-0.078767589,"MEAN_MOTION_DOT":-0.01086026,"MEAN_MOTION_DDOT":0}]
